MEAN_MOTION;ECCENTRICITY;INCLINATION;RA_OF_ASC_NODE;ARG_OF_PERICENTER;MEAN_ANOMALY;BSTAR;MEAN_MOTION_DOT;MEAN_MOTION_DDOT;TYPE
14.57101113;0.0001892;98.2098;17.2243;8.1248;64.5578;3.4674E-5;1.11E-6;0;Weather
14.57101129;0.0001874;98.2099;17.5073;7.48;130.3018;2.8902E-5;8.5E-7;0;Weather
14.57101184;0.0001835;98.2099;18.1754;5.7273;85.922;2.0928E-5;4.9E-7;0;Weather
14.57101248;0.0001791;98.21;18.8321;4.0583;340.8037;1.7391E-5;3.3E-7;0;Weather
14.57101332;0.0001765;98.21;19.1771;3.2094;16.7512;1.8226E-5;3.7E-7;0;Weather
14.57101413;0.0001718;98.2101;19.8451;1.3818;331.7484;1.7098E-5;3.2E-7;0;Weather
14.57101508;0.0001696;98.2102;20.135;0.4849;74.3063;1.8568E-5;3.8E-7;0;Weather
14.5710152;0.0001691;98.2102;20.2031;0.3242;77.0979;1.8983E-5;4.0E-7;0;Weather
14.5710164;0.0001646;98.2103;20.8195;358.8319;117.0119;1.9655E-5;4.3E-7;0;Weather
14.57101687;0.0001636;98.2103;20.9511;358.4159;97.5741;2.0354E-5;4.6E-7;0;Weather
14.57101853;0.0001576;98.2104;21.7564;356.1993;63.3739;2.1868E-5;5.3E-7;0;Weather
14.57101954;0.0001545;98.2105;22.1635;354.8215;70.1306;2.2474E-5;5.6E-7;0;Weather
14.57102081;0.0001486;98.2106;22.9794;352.273;92.0571;2.0318E-5;4.6E-7;0;Weather
14.57102123;0.0001477;98.2106;23.1122;351.7902;79.0962;2.0996E-5;4.9E-7;0;Weather
14.57102441;0.0001404;98.2107;24.061;348.934;88.5348;2.8642E-5;8.4E-7;0;Weather
14.57102463;0.0001401;98.2108;24.1268;348.7294;78.9901;2.9183E-5;8.6E-7;0;Weather
14.57102567;0.0001329;98.2109;25.079;345.6405;106.251;2.445E-5;6.5E-7;0;Weather
14.57102606;0.0001308;98.2109;25.3526;344.8274;122.6343;2.3586E-5;6.1E-7;0;Weather
14.5710269;0.0001252;98.211;26.0219;342.2126;84.9643;2.1098E-5;5.0E-7;0;Weather
14.57102781;0.0001206;98.211;26.7082;339.8021;137.2847;2.0909E-5;4.9E-7;0;Weather
14.57102883;0.0001183;98.211;27.0421;338.3105;114.8156;2.2415E-5;5.6E-7;0;Weather
14.57103059;0.000112;98.2111;27.9866;334.6069;101.9917;2.2581E-5;5.6E-7;0;Weather
14.57103074;0.0001117;98.2111;28.0533;334.3627;96.9661;2.2843E-5;5.8E-7;0;Weather
14.57103123;0.0001072;98.2111;28.7408;331.5685;155.9761;1.9594E-5;4.3E-7;0;Weather
14.57103178;0.0001053;98.2112;29.0023;330.2138;108.3292;1.9194E-5;4.1E-7;0;Weather
14.5710319;0.000105;98.2112;29.0679;330.0125;97.1726;1.9485E-5;4.2E-7;0;Weather
14.57103327;0.0001;98.2112;29.6983;327.4677;212.5156;2.0283E-5;4.6E-7;0;Weather
14.57103469;9.84E-5;98.2112;30.0164;325.8083;106.2062;2.3663E-5;6.1E-7;0;Weather
14.57103561;9.62E-5;98.2113;30.3007;324.4808;179.4356;2.6142E-5;7.2E-7;0;Weather
14.57103647;9.36E-5;98.2113;30.678;322.3741;28.1311;2.7178E-5;7.7E-7;0;Weather
14.57103741;9.12E-5;98.2113;31.0307;320.4609;106.0644;2.6971E-5;7.6E-7;0;Weather
14.57103859;8.56E-5;98.2114;31.9749;315.0162;92.5494;2.0991E-5;4.9E-7;0;Weather
14.57103923;8.18E-5;98.2115;32.5962;311.5774;160.3522;1.7837E-5;3.5E-7;0;Weather
14.57104031;8.0E-5;98.2116;32.9264;309.3666;118.4838;2.016E-5;4.6E-7;0;Weather
14.57104168;7.64E-5;98.2117;33.6126;304.7769;172.0924;2.1774E-5;5.3E-7;0;Weather
14.57104239;7.45E-5;98.2118;34.0093;301.9784;124.7797;2.0612E-5;4.8E-7;0;Weather
14.57104302;6.95E-5;98.2119;34.8912;295.3773;141.3182;1.5616E-5;2.5E-7;0;Weather
14.57104462;6.54E-5;98.2121;35.9063;286.7911;148.1478;1.6555E-5;2.9E-7;0;Weather
14.57114229;6.96E-5;98.2047;36.9238;301.1091;150.3155;2.4792E-5;6.6E-7;0;Weather
14.5711416;6.51E-5;98.2048;37.203;298.1234;199.332;2.5076E-5;6.8E-7;0;Weather
14.57114393;6.46E-5;98.2048;37.6068;295.2388;191.4621;3.4463E-5;1.1E-6;0;Weather
14.57114489;6.39E-5;98.2049;37.9333;292.49;132.5019;3.5433E-5;1.14E-6;0;Weather
14.57114679;6.17E-5;98.2049;38.5301;287.0784;74.0449;3.6466E-5;1.19E-6;0;Weather
14.57114699;6.17E-5;98.2049;38.5947;286.6012;58.8652;3.6512E-5;1.19E-6;0;Weather
14.57114796;6.13E-5;98.205;38.8817;283.8918;149.0132;3.6126E-5;1.18E-6;0;Weather
14.57115031;5.8E-5;98.205;39.8302;274.1585;167.2151;3.1963E-5;9.9E-7;0;Weather
14.5711523;5.68E-5;98.2051;40.8443;263.1418;175.305;2.753E-5;7.9E-7;0;Weather
14.57115472;5.67E-5;98.2052;41.8577;252.1885;179.594;2.6626E-5;7.5E-7;0;Weather
14.57115548;5.67E-5;98.2052;42.1406;249.1196;248.3847;2.7762E-5;8.0E-7;0;Weather
14.57115805;5.86E-5;98.2052;42.8737;241.8994;197.0782;3.1223E-5;9.5E-7;0;Weather
14.57115927;5.94E-5;98.2053;43.2855;237.703;233.288;3.1039E-5;9.5E-7;0;Weather
14.57126379;4.44E-5;98.1979;43.8181;258.7865;175.6304;3.007E-5;9.0E-7;0;Weather
14.57126301;4.59E-5;98.198;44.3656;249.8148;220.9231;2.6365E-5;7.4E-7;0;Weather
14.57126414;4.68E-5;98.198;44.7653;245.1837;194.384;3.1028E-5;9.5E-7;0;Weather
14.57126616;4.84E-5;98.1981;45.3827;236.9978;251.1901;3.0308E-5;9.1E-7;0;Weather
14.57126715;4.99E-5;98.1981;45.7812;233.7127;217.3571;2.8558E-5;8.4E-7;0;Weather
14.5712686;5.23E-5;98.1982;46.3823;227.248;185.3501;2.7325E-5;7.8E-7;0;Weather
14.57127033;5.36E-5;98.1983;46.7279;222.2034;231.5965;3.091E-5;9.4E-7;0;Weather
14.57127151;5.68E-5;98.1983;47.4064;216.0518;251.3135;2.6098E-5;7.2E-7;0;Weather
14.57127237;5.87E-5;98.1984;47.7378;213.42;219.2704;2.528E-5;6.9E-7;0;Weather
14.57127433;6.45E-5;98.1985;48.7514;205.4175;225.751;2.2705E-5;5.7E-7;0;Weather
14.57127682;7.06E-5;98.1987;49.7014;199.0387;252.5672;2.4036E-5;6.3E-7;0;Weather
14.57127742;7.63E-5;98.1988;50.5789;194.2832;250.6339;1.7313E-5;3.3E-7;0;Weather
14.57127776;7.88E-5;98.1989;50.994;191.9201;304.0235;1.5849E-5;2.6E-7;0;Weather
14.57127942;8.42E-5;98.199;51.7268;188.7666;250.3428;1.8771E-5;3.9E-7;0;Weather
14.5712809;8.92E-5;98.199;52.3195;185.5455;170.1971;2.2366E-5;5.6E-7;0;Weather
14.57128197;9.17E-5;98.1991;52.6754;184.0443;267.3275;2.3339E-5;6.0E-7;0;Weather
14.57128365;9.9E-5;98.1992;53.6196;180.2344;260.0419;2.3066E-5;5.9E-7;0;Weather
14.57128379;9.94E-5;98.1992;53.6843;179.9502;244.978;2.3202E-5;5.9E-7;0;Weather
14.57128645;0.0001066;98.1992;54.6319;176.497;254.9806;2.6608E-5;7.5E-7;0;Weather
14.57128748;0.0001091;98.1993;54.915;175.5383;323.5002;2.971E-5;8.9E-7;0;Weather
14.57128827;0.0001121;98.1993;55.3043;174.2585;238.4954;2.9786E-5;8.9E-7;0;Weather
14.57128939;0.0001135;98.1993;55.5793;173.3228;263.9386;3.1029E-5;9.5E-7;0;Weather
14.5712903;0.0001161;98.1993;55.9291;171.7835;328.0955;3.0477E-5;9.2E-7;0;Weather
14.57129063;0.0001204;98.1993;56.3277;170.5457;292.5983;2.8058E-5;8.1E-7;0;Weather
14.57116085;0.0001167;98.1994;56.5923;167.6025;265.1311;2.6601E-5;7.5E-7;0;Weather
14.57115929;0.000118;98.1994;56.8694;165.835;301.6933;2.6523E-5;7.4E-7;0;Weather
14.5711603;0.0001226;98.1994;57.2097;164.8406;315.1162;2.6368E-5;7.4E-7;0;Weather
14.57116152;0.0001256;98.1994;57.5379;164.0792;264.4131;2.6266E-5;7.3E-7;0;Weather
14.57116245;0.0001286;98.1994;57.8888;162.8522;334.3007;2.9019E-5;8.6E-7;0;Weather
14.57116339;0.0001339;98.1995;58.6192;161.2474;265.6332;2.3721E-5;6.2E-7;0;Weather
14.5711638;0.0001388;98.1995;59.2126;159.6238;187.3704;1.931E-5;4.2E-7;0;Weather
14.57116464;0.0001417;98.1995;59.5665;158.7324;272.9977;1.9279E-5;4.2E-7;0;Weather
14.57116614;0.0001484;98.1996;60.442;156.573;257.608;1.9015E-5;4.0E-7;0;Weather
14.57116625;0.0001489;98.1996;60.511;156.4003;265.4844;1.8975E-5;4.0E-7;0;Weather
14.57116849;0.0001564;98.1998;61.5305;153.9506;297.1437;2.0317E-5;4.6E-7;0;Weather
14.57116979;0.0001633;98.1999;62.4743;151.8963;285.3779;1.8341E-5;3.7E-7;0;Weather
14.57116983;0.0001636;98.2;62.5396;151.7298;273.4621;1.8132E-5;3.6E-7;0;Weather
14.57117152;0.0001706;98.2001;63.488;149.6471;285.8916;1.769E-5;3.5E-7;0;Weather
14.57117205;0.0001729;98.2002;63.771;148.9005;353.5874;1.8269E-5;3.7E-7;0;Weather
14.57117331;0.0001764;98.2002;64.1728;147.9724;334.1571;2.1408E-5;5.1E-7;0;Weather
14.57117418;0.0001785;98.2003;64.501;147.3051;282.6706;2.2269E-5;5.5E-7;0;Weather
14.57117508;0.0001807;98.2003;64.7844;146.6371;352.462;2.4996E-5;6.7E-7;0;Weather
14.57117552;0.0001826;98.2003;65.1067;145.9694;269.2784;2.4179E-5;6.4E-7;0;Weather
14.57117614;0.0001856;98.2004;65.514;145.0333;279.6881;2.2283E-5;5.5E-7;0;Weather
14.57117668;0.0001895;98.2004;66.1134;143.6983;232.6166;1.9699E-5;4.4E-7;0;Weather
14.57117671;0.0001898;98.2004;66.1444;143.6073;37.8516;1.9355E-5;4.2E-7;0;Weather
14.57117751;0.000192;98.2005;66.4574;142.9607;265.2501;1.9802E-5;4.4E-7;0;Weather
14.57117923;0.0001981;98.2006;67.4085;140.9849;291.4427;2.096E-5;4.9E-7;0;Weather
14.57117963;0.0001983;98.2006;67.4771;140.8564;296.943;2.2716E-5;5.7E-7;0;Weather
14.5711822;0.0002047;98.2006;68.4226;138.9714;293.6697;2.5784E-5;7.1E-7;0;Weather
14.57118276;0.0002068;98.2007;68.7055;138.3166;0.5897;2.5451E-5;6.9E-7;0;Weather
14.57118426;0.0002116;98.2007;69.4357;136.9983;290.2052;2.5244E-5;6.9E-7;0;Weather
14.57118483;0.000214;98.2007;69.7195;136.3696;1.7249;2.4138E-5;6.4E-7;0;Weather
14.5711882;0.000221;98.2008;70.8637;134.1107;337.1403;2.8077E-5;8.1E-7;0;Weather
14.57118959;0.0002232;98.2007;71.1926;133.5321;288.8283;3.1525E-5;9.7E-7;0;Weather
14.57119111;0.0002282;98.2008;72.0148;131.7394;348.7792;2.7979E-5;8.1E-7;0;Weather
14.57119187;0.0002302;98.2008;72.3444;131.1966;303.9838;2.6459E-5;7.4E-7;0;Weather
14.57119251;0.0002341;98.2009;73.005;129.8459;222.7942;2.1751E-5;5.3E-7;0;Weather
14.57119332;0.0002354;98.2009;73.2894;129.3289;297.6717;2.2051E-5;5.4E-7;0;Weather
14.57119651;0.00024;98.2009;74.0204;127.9121;231.3873;2.8911E-5;8.5E-7;0;Weather
14.57119709;0.0002414;98.201;74.3051;127.4269;307.5637;2.8371E-5;8.3E-7;0;Weather
14.57119716;0.0002419;98.201;74.3709;127.2802;298.4008;2.8184E-5;8.2E-7;0;Weather
14.57119949;0.0002474;98.2011;75.322;125.428;324.5;2.5609E-5;7.0E-7;0;Weather
14.57120005;0.0002493;98.2011;75.6013;124.8934;12.0773;2.431E-5;6.4E-7;0;Weather
14.57120217;0.0002524;98.2012;76.2691;123.7217;328.9264;2.5545E-5;7.0E-7;0;Weather
14.57120376;0.0002561;98.2012;76.8848;122.5371;8.1166;2.5785E-5;7.1E-7;0;Weather
14.57120556;0.0002578;98.2013;77.2831;121.8275;329.3725;2.9142E-5;8.6E-7;0;Weather
14.57120787;0.0002616;98.2014;78.0865;120.304;288.793;3.0076E-5;9.0E-7;0;Weather
14.57120829;0.0002621;98.2014;78.2302;120.1835;333.631;3.0481E-5;9.2E-7;0;Weather
14.57121019;0.0002666;98.2015;79.1703;118.3207;301.1026;2.4905E-5;6.7E-7;0;Weather
